[{"OBJECT_NAME":"STARLINK-1569","OBJECT_ID":"2020-055N","EPOCH":"2026-03-10T00:00:02.999808","MEAN_MOTION":15.18469415,"ECCENTRICITY":0.00021467,"INCLINATION":53.1037,"RA_OF_ASC_NODE":124.869,"ARG_OF_PERICENTER":70.9863,"MEAN_ANOMALY":37.8804,"EPHEMERIS_TYPE":0,"CLASSIFICATION_TYPE":"U","NORAD_CAT_ID":46039,"ELEMENT_SET_NO":999,"REV_AT_EPOCH":579,"BSTAR":0.0056656927,"MEAN_MOTION_DOT":0.00119854,"MEAN_MOTION_DDOT":0},{"OBJECT_NAME":"TRANSPORTER-15 OBJECT AA","OBJECT_ID":"2025-276AA","EPOCH":"2026-03-09T17:09:28.865952","MEAN_MOTION":15.18098016,"ECCENTRICITY":0.00045616,"INCLINATION":97.4256,"RA_OF_ASC_NODE":143.8764,"ARG_OF_PERICENTER":6.1284,"MEAN_ANOMALY":354.0005,"EPHEMERIS_TYPE":0,"CLASSIFICATION_TYPE":"U","NORAD_CAT_ID":66690,"ELEMENT_SET_NO":999,"REV_AT_EPOCH":1531,"BSTAR":0.00028455511,"MEAN_MOTION_DOT":5.737e-5,"MEAN_MOTION_DDOT":0}]
